0 CZ-4B DEB
1 28438U 02024E   13282.84647335  .00001372  00000-0  59451-3 0  1036
2 28438 098.4511 301.2618 0025663 152.7289 207.5245 14.25658406591238
0 CZ-4B DEB
1 28438U 02024E   13285.02215290  .00001439  00000-0  62244-3 0  1049
2 28438 098.4506 303.3596 0025707 146.6871 213.5934 14.25663783591548
0 CZ-4B DEB
1 28438U 02024E   13287.82946519  .00001863  00000-0  80051-3 0  1052
2 28438 098.4499 306.0663 0025756 138.9058 221.4068 14.25674430591940
0 CZ-4B DEB
1 28438U 02024E   13289.86475183  .00001836  00000-0  78916-3 0  1060
2 28438 098.4497 308.0283 0025744 133.2906 227.0428 14.25682870592237
0 CZ-4B DEB
1 28438U 02024E   13292.32111571  .00001937  00000-0  83133-3 0  1073
2 28438 098.4498 310.3960 0025761 126.3860 233.9702 14.25691260592589
0 CZ-4B DEB
1 28438U 02024E   13295.26873221  .00002101  00000-0  89995-3 0  1083
2 28438 098.4499 313.2373 0025731 118.1626 242.2158 14.25702807593002
